{
"type": "FeatureCollection",
"name": "bridges",
"crs": { "type": "name", "properties": { "name": "urn:ogc:def:crs:OGC:1.3:CRS84" } },
"features": [
{ "type": "Feature", "properties": { "osm_id": 27585988, "bridge": "yes", "bicycle": "no", "layer": "1", "highway": "trunk", "surface": "asphalt", "foot": "no", "name": "МКАД, 49-й километр", "oneway": "yes", "maxspeed": "100", "lanes": "5", "loc_ref": "МКАД", "motorroad": "yes", "lit": "yes", "postal_code": "117607", "int_ref": "E 30;E 105;AH8", "bridge:name": null, "wikipedia": null, "wikidata": null, "turn:lanes": null, "official_name": null, "start_date": null }, "geometry": { "type": "LineString", "coordinates": [ [ 37.4275461, 55.6681485 ], [ 37.4281623, 55.6673252 ] ] } },
{ "type": "Feature", "properties": { "osm_id": 27593352, "bridge": "yes", "bicycle": "no", "layer": "1", "highway": "trunk", "surface": "asphalt", "foot": "no", "name": "МКАД, 49-й километр", "oneway": "yes", "maxspeed": "100", "lanes": "5", "loc_ref": "МКАД", "motorroad": "yes", "lit": "yes", "postal_code": "117607", "int_ref": "E 30;E 105;AH8", "bridge:name": null, "wikipedia": null, "wikidata": null, "turn:lanes": null, "official_name": null, "start_date": null }, "geometry": { "type": "LineString", "coordinates": [ [ 37.4285443, 55.6674162 ], [ 37.4279281, 55.6682394 ] ] } },
{ "type": "Feature", "properties": { "osm_id": 27730756, "bridge": "yes", "bicycle": "no", "layer": "1", "highway": "trunk", "surface": "asphalt", "foot": "no", "name": "МКАД, 52-й километр", "oneway": "yes", "maxspeed": "100", "lanes": "5", "loc_ref": "МКАД", "motorroad": "yes", "lit": "yes", "postal_code": "121353", "int_ref": "E 30;E 105;AH8", "bridge:name": null, "wikipedia": null, "wikidata": null, "turn:lanes": null, "official_name": null, "start_date": null }, "geometry": { "type": "LineString", "coordinates": [ [ 37.4022983, 55.6992873 ], [ 37.4029151, 55.6988153 ] ] } },
{ "type": "Feature", "properties": { "osm_id": 27730752, "bridge": "yes", "bicycle": "no", "layer": "1", "highway": "trunk", "surface": "asphalt", "foot": "no", "name": "МКАД, 52-й километр", "oneway": "yes", "maxspeed": "100", "lanes": "5", "loc_ref": "МКАД", "motorroad": "yes", "lit": "yes", "postal_code": "121353", "int_ref": "E 30;E 105;AH6", "bridge:name": null, "wikipedia": null, "wikidata": null, "turn:lanes": null, "official_name": null, "start_date": null }, "geometry": { "type": "LineString", "coordinates": [ [ 37.403144, 55.6990003 ], [ 37.4026483, 55.6993833 ] ] } },
{ "type": "Feature", "properties": { "osm_id": 27824153, "bridge": "yes", "bicycle": "no", "layer": "1", "highway": "trunk", "surface": "asphalt", "foot": "no", "name": "МКАД, 53-й километр", "oneway": "yes", "maxspeed": "100", "lanes": "5", "loc_ref": "МКАД", "motorroad": "yes", "lit": "yes", "postal_code": "121353", "int_ref": "E 30;E 105;AH8", "bridge:name": null, "wikipedia": null, "wikidata": null, "turn:lanes": null, "official_name": null, "start_date": null }, "geometry": { "type": "LineString", "coordinates": [ [ 37.3985259, 55.7020762 ], [ 37.3992668, 55.7015145 ] ] } },
{ "type": "Feature", "properties": { "osm_id": 205526160, "bridge": "yes", "bicycle": "no", "layer": "1", "highway": "trunk", "surface": "asphalt", "foot": "no", "name": "МКАД, 53-й километр", "oneway": "yes", "maxspeed": "100", "lanes": "5", "loc_ref": "МКАД", "motorroad": "yes", "lit": "yes", "postal_code": "121353", "int_ref": "E 30;E 105;AH8", "bridge:name": null, "wikipedia": null, "wikidata": null, "turn:lanes": null, "official_name": null, "start_date": null }, "geometry": { "type": "LineString", "coordinates": [ [ 37.39954, 55.7016975 ], [ 37.3987589, 55.7022474 ] ] } },
{ "type": "Feature", "properties": { "osm_id": 95450963, "bridge": "yes", "bicycle": "no", "layer": "1", "highway": "trunk", "surface": "asphalt", "foot": "no", "name": "МКАД, 41-й километр", "oneway": "yes", "maxspeed": "100", "lanes": "5", "loc_ref": "МКАД", "motorroad": "yes", "lit": "yes", "postal_code": "117465", "int_ref": "E 30;E 105;AH8", "bridge:name": null, "wikipedia": null, "wikidata": null, "turn:lanes": null, "official_name": null, "start_date": null }, "geometry": { "type": "LineString", "coordinates": [ [ 37.4913209, 55.6115217 ], [ 37.4922794, 55.6106991 ] ] } },
{ "type": "Feature", "properties": { "osm_id": 95462725, "bridge": "yes", "bicycle": "no", "layer": "1", "highway": "trunk", "surface": "asphalt", "foot": "no", "name": "МКАД, 41-й километр", "oneway": "yes", "maxspeed": "100", "lanes": "5", "loc_ref": "МКАД", "motorroad": "yes", "lit": "yes", "postal_code": "117465", "int_ref": "E 30;E 105;AH8", "bridge:name": null, "wikipedia": null, "wikidata": null, "turn:lanes": null, "official_name": null, "start_date": null }, "geometry": { "type": "LineString", "coordinates": [ [ 37.4926023, 55.6108475 ], [ 37.4916455, 55.6116684 ] ] } },
{ "type": "Feature", "properties": { "osm_id": 156283237, "bridge": "yes", "bicycle": "no", "layer": "1", "highway": "trunk", "surface": "asphalt", "foot": "no", "name": "МКАД, 32-й километр", "oneway": "yes", "maxspeed": "100", "lanes": "5", "loc_ref": "МКАД", "motorroad": "yes", "lit": "yes", "postal_code": "117405", "int_ref": "E 30", "bridge:name": null, "wikipedia": null, "wikidata": null, "turn:lanes": null, "official_name": null, "start_date": null }, "geometry": { "type": "LineString", "coordinates": [ [ 37.6125991, 55.5749797 ], [ 37.6136634, 55.5749176 ] ] } },
{ "type": "Feature", "properties": { "osm_id": 156283240, "bridge": "yes", "bicycle": "no", "layer": "1", "highway": "trunk", "surface": "asphalt", "foot": "no", "name": "МКАД, 32-й километр", "oneway": "yes", "maxspeed": "100", "lanes": "5", "loc_ref": "МКАД", "motorroad": "yes", "lit": "yes", "postal_code": "117405", "int_ref": "E 30", "bridge:name": null, "wikipedia": null, "wikidata": null, "turn:lanes": null, "official_name": null, "start_date": null }, "geometry": { "type": "LineString", "coordinates": [ [ 37.6137059, 55.5751502 ], [ 37.6126416, 55.5752123 ] ] } },
{ "type": "Feature", "properties": { "osm_id": 155724775, "bridge": "yes", "bicycle": "no", "layer": "1", "highway": "trunk", "surface": "asphalt", "foot": "no", "name": "МКАД, 45-й километр", "oneway": "yes", "maxspeed": "100", "lanes": "5", "loc_ref": "МКАД", "motorroad": "yes", "lit": "yes", "postal_code": null, "int_ref": "E 30;E 105;AH8", "bridge:name": null, "wikipedia": null, "wikidata": null, "turn:lanes": null, "official_name": null, "start_date": null }, "geometry": { "type": "LineString", "coordinates": [ [ 37.4590366, 55.6391814 ], [ 37.4598233, 55.6385111 ] ] } },
{ "type": "Feature", "properties": { "osm_id": 155724785, "bridge": "yes", "bicycle": "no", "layer": "1", "highway": "trunk", "surface": "asphalt", "foot": "no", "name": "МКАД, 45-й километр", "oneway": "yes", "maxspeed": "100", "lanes": "5", "loc_ref": "МКАД", "motorroad": "yes", "lit": "yes", "postal_code": null, "int_ref": "E 30;E 105;AH8", "bridge:name": null, "wikipedia": null, "wikidata": null, "turn:lanes": null, "official_name": null, "start_date": null }, "geometry": { "type": "LineString", "coordinates": [ [ 37.4601481, 55.6386571 ], [ 37.4593643, 55.6393252 ] ] } },
{ "type": "Feature", "properties": { "osm_id": 440031933, "bridge": "yes", "bicycle": "no", "layer": null, "highway": "trunk", "surface": "asphalt", "foot": "no", "name": "МКАД, 56-й километр", "oneway": "yes", "maxspeed": "100", "lanes": "5", "loc_ref": "МКАД", "motorroad": "yes", "lit": "yes", "postal_code": "115580", "int_ref": "E 105;AH8", "bridge:name": null, "wikipedia": null, "wikidata": null, "turn:lanes": null, "official_name": null, "start_date": null }, "geometry": { "type": "LineString", "coordinates": [ [ 37.3777247, 55.7292466 ], [ 37.3779394, 55.7288322 ] ] } },
{ "type": "Feature", "properties": { "osm_id": 440031937, "bridge": "yes", "bicycle": "no", "layer": null, "highway": "trunk", "surface": "asphalt", "foot": "no", "name": "МКАД, 56-й километр", "oneway": "yes", "maxspeed": "100", "lanes": "5", "loc_ref": "МКАД", "motorroad": "yes", "lit": "yes", "postal_code": "115580", "int_ref": "E 105;AH8", "bridge:name": null, "wikipedia": null, "wikidata": null, "turn:lanes": null, "official_name": null, "start_date": null }, "geometry": { "type": "LineString", "coordinates": [ [ 37.3784, 55.7287314 ], [ 37.3781799, 55.7291564 ] ] } },
{ "type": "Feature", "properties": { "osm_id": 50597001, "bridge": "yes", "bicycle": "no", "layer": "1", "highway": "trunk", "surface": "asphalt", "foot": "no", "name": "МКАД, 60-й километр", "oneway": "yes", "maxspeed": "100", "lanes": "5", "loc_ref": "МКАД", "motorroad": "yes", "lit": "yes", "postal_code": "121500", "int_ref": "E 105;AH8", "bridge:name": null, "wikipedia": null, "wikidata": null, "turn:lanes": null, "official_name": null, "start_date": null }, "geometry": { "type": "LineString", "coordinates": [ [ 37.3691159, 55.7655037 ], [ 37.3691043, 55.7646837 ] ] } },
{ "type": "Feature", "properties": { "osm_id": 50597000, "bridge": "yes", "bicycle": "no", "layer": "1", "highway": "trunk", "surface": "asphalt", "foot": "no", "name": "МКАД, 60-й километр", "oneway": "yes", "maxspeed": "100", "lanes": "5", "loc_ref": "МКАД", "motorroad": "yes", "lit": "yes", "postal_code": "121500", "int_ref": "E 105;AH8", "bridge:name": null, "wikipedia": null, "wikidata": null, "turn:lanes": null, "official_name": null, "start_date": null }, "geometry": { "type": "LineString", "coordinates": [ [ 37.3694781, 55.7646915 ], [ 37.3695008, 55.7655061 ] ] } },
{ "type": "Feature", "properties": { "osm_id": 17151046, "bridge": "yes", "bicycle": "no", "layer": "1", "highway": "trunk", "surface": "asphalt", "foot": "no", "name": "МКАД, 63-й километр", "oneway": "yes", "maxspeed": "100", "lanes": "5", "loc_ref": "МКАД", "motorroad": "yes", "lit": "yes", "postal_code": null, "int_ref": "E 105;AH8", "bridge:name": null, "wikipedia": null, "wikidata": null, "turn:lanes": null, "official_name": null, "start_date": null }, "geometry": { "type": "LineString", "coordinates": [ [ 37.3730022, 55.7901347 ], [ 37.3723085, 55.7893622 ] ] } },
{ "type": "Feature", "properties": { "osm_id": 17151048, "bridge": "yes", "bicycle": "no", "layer": "1", "highway": "trunk", "surface": "asphalt", "foot": "no", "name": "МКАД, 63-й километр", "oneway": "yes", "maxspeed": "100", "lanes": "5", "loc_ref": "МКАД", "motorroad": "yes", "lit": "yes", "postal_code": null, "int_ref": "E 105;AH8", "bridge:name": null, "wikipedia": null, "wikidata": null, "turn:lanes": null, "official_name": null, "start_date": null }, "geometry": { "type": "LineString", "coordinates": [ [ 37.3726148, 55.7892489 ], [ 37.3733215, 55.7900485 ] ] } },
{ "type": "Feature", "properties": { "osm_id": 86403494, "bridge": "yes", "bicycle": "no", "layer": "1", "highway": "trunk", "surface": "asphalt", "foot": "no", "name": "МКАД, 68-й километр", "oneway": "yes", "maxspeed": "100", "lanes": "5", "loc_ref": "МКАД", "motorroad": "yes", "lit": "yes", "postal_code": null, "int_ref": "E 22;E 105", "bridge:name": "Спасский мост", "wikipedia": null, "wikidata": null, "turn:lanes": null, "official_name": null, "start_date": null }, "geometry": { "type": "LineString", "coordinates": [ [ 37.3945756, 55.8303232 ], [ 37.3938828, 55.8281755 ] ] } },
{ "type": "Feature", "properties": { "osm_id": 86403495, "bridge": "yes", "bicycle": "no", "layer": "1", "highway": "trunk", "surface": "asphalt", "foot": "no", "name": "МКАД, 68-й километр", "oneway": "yes", "maxspeed": "100", "lanes": "5", "loc_ref": "МКАД", "motorroad": "yes", "lit": "yes", "postal_code": null, "int_ref": "E 22;E 105", "bridge:name": "Спасский мост", "wikipedia": null, "wikidata": null, "turn:lanes": null, "official_name": null, "start_date": null }, "geometry": { "type": "LineString", "coordinates": [ [ 37.3945193, 55.8283211 ], [ 37.3950919, 55.8301266 ] ] } },
{ "type": "Feature", "properties": { "osm_id": 195620336, "bridge": "yes", "bicycle": "no", "layer": "1", "highway": "trunk", "surface": "asphalt", "foot": "no", "name": "МКАД, 68-й километр", "oneway": "yes", "maxspeed": "100", "lanes": "5", "loc_ref": "МКАД", "motorroad": "yes", "lit": "yes", "postal_code": null, "int_ref": "E 22;E 105", "bridge:name": null, "wikipedia": null, "wikidata": null, "turn:lanes": null, "official_name": null, "start_date": null }, "geometry": { "type": "LineString", "coordinates": [ [ 37.3952809, 55.8325709 ], [ 37.3952077, 55.8323289 ], [ 37.3951906, 55.8322663 ] ] } },
{ "type": "Feature", "properties": { "osm_id": 86403492, "bridge": "yes", "bicycle": "no", "layer": "1", "highway": "trunk", "surface": "asphalt", "foot": "no", "name": "МКАД, 68-й километр", "oneway": "yes", "maxspeed": "100", "lanes": "5", "loc_ref": "МКАД", "motorroad": "yes", "lit": "yes", "postal_code": null, "int_ref": "E 22;E 105", "bridge:name": null, "wikipedia": null, "wikidata": null, "turn:lanes": null, "official_name": null, "start_date": null }, "geometry": { "type": "LineString", "coordinates": [ [ 37.3958487, 55.8322941 ], [ 37.3959164, 55.832515 ], [ 37.3959778, 55.8327243 ] ] } },
{ "type": "Feature", "properties": { "osm_id": 86403224, "bridge": "yes", "bicycle": "no", "layer": "1", "highway": "trunk", "surface": "asphalt", "foot": "no", "name": "МКАД, 68-й километр", "oneway": "yes", "maxspeed": "100", "lanes": "5", "loc_ref": "МКАД", "motorroad": "yes", "lit": "yes", "postal_code": null, "int_ref": "E 22;E 105", "bridge:name": null, "wikipedia": null, "wikidata": null, "turn:lanes": null, "official_name": null, "start_date": null }, "geometry": { "type": "LineString", "coordinates": [ [ 37.3955498, 55.8335999 ], [ 37.3954712, 55.8332062 ], [ 37.395369, 55.8328329 ], [ 37.3952809, 55.8325709 ] ] } },
{ "type": "Feature", "properties": { "osm_id": 669810943, "bridge": "yes", "bicycle": "no", "layer": "1", "highway": "trunk", "surface": "asphalt", "foot": "no", "name": "МКАД, 68-й километр", "oneway": "yes", "maxspeed": "100", "lanes": "5", "loc_ref": "МКАД", "motorroad": "yes", "lit": "yes", "postal_code": null, "int_ref": "E 22;E 105", "bridge:name": null, "wikipedia": null, "wikidata": null, "turn:lanes": null, "official_name": null, "start_date": null }, "geometry": { "type": "LineString", "coordinates": [ [ 37.3956236, 55.8340723 ], [ 37.3955498, 55.8335999 ] ] } },
{ "type": "Feature", "properties": { "osm_id": 86403496, "bridge": "yes", "bicycle": "no", "layer": "1", "highway": "trunk", "surface": "asphalt", "foot": "no", "name": "МКАД, 68-й километр", "oneway": "yes", "maxspeed": "100", "lanes": "5", "loc_ref": "МКАД", "motorroad": "yes", "lit": "yes", "postal_code": null, "int_ref": "E 22;E 105", "bridge:name": null, "wikipedia": null, "wikidata": null, "turn:lanes": null, "official_name": null, "start_date": null }, "geometry": { "type": "LineString", "coordinates": [ [ 37.3961179, 55.8332562 ], [ 37.3961817, 55.8335013 ], [ 37.396295, 55.8339594 ] ] } },
{ "type": "Feature", "properties": { "osm_id": 27536229, "bridge": "yes", "bicycle": "no", "layer": "1", "highway": "trunk", "surface": "asphalt", "foot": "no", "name": "МКАД, 69-й километр", "oneway": "yes", "maxspeed": "100", "lanes": "5", "loc_ref": "МКАД", "motorroad": "yes", "lit": "yes", "postal_code": null, "int_ref": "E 22;E 105", "bridge:name": null, "wikipedia": null, "wikidata": null, "turn:lanes": null, "official_name": null, "start_date": null }, "geometry": { "type": "LineString", "coordinates": [ [ 37.3927843, 55.8434444 ], [ 37.3930783, 55.8430464 ] ] } },
{ "type": "Feature", "properties": { "osm_id": 27536199, "bridge": "yes", "bicycle": "no", "layer": "1", "highway": "trunk", "surface": "asphalt", "foot": "no", "name": "МКАД, 69-й километр", "oneway": "yes", "maxspeed": "100", "lanes": "5", "loc_ref": "МКАД", "motorroad": "yes", "lit": "yes", "postal_code": null, "int_ref": "E 22;E 105", "bridge:name": null, "wikipedia": null, "wikidata": null, "turn:lanes": null, "official_name": null, "start_date": null }, "geometry": { "type": "LineString", "coordinates": [ [ 37.3934329, 55.8431308 ], [ 37.3931339, 55.8435276 ] ] } },
{ "type": "Feature", "properties": { "osm_id": 16055748, "bridge": "yes", "bicycle": "no", "layer": "1", "highway": "trunk", "surface": "asphalt", "foot": "no", "name": "МКАД, 75-й километр", "oneway": "yes", "maxspeed": "100", "lanes": "5", "loc_ref": "МКАД", "motorroad": "yes", "lit": "yes", "postal_code": null, "int_ref": "E 22;E 105;AH8", "bridge:name": null, "wikipedia": null, "wikidata": null, "turn:lanes": null, "official_name": null, "start_date": null }, "geometry": { "type": "LineString", "coordinates": [ [ 37.4378165, 55.8797013 ], [ 37.4366243, 55.8793325 ] ] } },
{ "type": "Feature", "properties": { "osm_id": 86113061, "bridge": "yes", "bicycle": "no", "layer": "1", "highway": "trunk", "surface": "asphalt", "foot": "no", "name": "МКАД, 75-й километр", "oneway": "yes", "maxspeed": "100", "lanes": "5", "loc_ref": "МКАД", "motorroad": "yes", "lit": "yes", "postal_code": null, "int_ref": "E 22;E 105;AH8", "bridge:name": null, "wikipedia": null, "wikidata": null, "turn:lanes": null, "official_name": null, "start_date": null }, "geometry": { "type": "LineString", "coordinates": [ [ 37.4368275, 55.8791283 ], [ 37.4380318, 55.8795009 ] ] } },
{ "type": "Feature", "properties": { "osm_id": 86111263, "bridge": "yes", "bicycle": "no", "layer": "1", "highway": "trunk", "surface": "asphalt", "foot": "no", "name": "МКАД, 76-й километр", "oneway": "yes", "maxspeed": "100", "lanes": "5", "loc_ref": "МКАД", "motorroad": "yes", "lit": "yes", "postal_code": null, "int_ref": "E 22", "bridge:name": "Химкинский мост", "wikipedia": null, "wikidata": null, "turn:lanes": null, "official_name": null, "start_date": null }, "geometry": { "type": "LineString", "coordinates": [ [ 37.4558919, 55.8825376 ], [ 37.4597904, 55.8825983 ] ] } },
{ "type": "Feature", "properties": { "osm_id": 86111941, "bridge": "yes", "bicycle": "no", "layer": "1", "highway": "trunk", "surface": "asphalt", "foot": "no", "name": "МКАД, 76-й километр", "oneway": "yes", "maxspeed": "100", "lanes": "5", "loc_ref": "МКАД", "motorroad": "yes", "lit": "yes", "postal_code": null, "int_ref": "E 22", "bridge:name": "Химкинский мост", "wikipedia": null, "wikidata": null, "turn:lanes": null, "official_name": null, "start_date": null }, "geometry": { "type": "LineString", "coordinates": [ [ 37.4597901, 55.8829318 ], [ 37.4558497, 55.8828693 ] ] } },
{ "type": "Feature", "properties": { "osm_id": 9465067, "bridge": "yes", "bicycle": "no", "layer": "1", "highway": "trunk", "surface": "asphalt", "foot": "no", "name": "МКАД, 77-й километр", "oneway": "yes", "maxspeed": "100", "lanes": "5", "loc_ref": "МКАД", "motorroad": "yes", "lit": "yes", "postal_code": null, "int_ref": "E 22", "bridge:name": null, "wikipedia": null, "wikidata": null, "turn:lanes": null, "official_name": null, "start_date": null }, "geometry": { "type": "LineString", "coordinates": [ [ 37.4734813, 55.8847177 ], [ 37.4749271, 55.8850813 ] ] } },
{ "type": "Feature", "properties": { "osm_id": 86111262, "bridge": "yes", "bicycle": "no", "layer": "1", "highway": "trunk", "surface": "asphalt", "foot": "no", "name": "МКАД, 77-й километр", "oneway": "yes", "maxspeed": "100", "lanes": "5", "loc_ref": "МКАД", "motorroad": "yes", "lit": "yes", "postal_code": null, "int_ref": "E 22", "bridge:name": null, "wikipedia": null, "wikidata": null, "turn:lanes": null, "official_name": null, "start_date": null }, "geometry": { "type": "LineString", "coordinates": [ [ 37.4746001, 55.8852476 ], [ 37.4731667, 55.8848802 ] ] } },
{ "type": "Feature", "properties": { "osm_id": 156283300, "bridge": "yes", "bicycle": "no", "layer": "1", "highway": "trunk", "surface": "asphalt", "foot": "no", "name": "МКАД, 79-й километр", "oneway": "yes", "maxspeed": "100", "lanes": "5", "loc_ref": "МКАД", "motorroad": "yes", "lit": "yes", "postal_code": null, "int_ref": "E 22", "bridge:name": null, "wikipedia": null, "wikidata": null, "turn:lanes": null, "official_name": null, "start_date": null }, "geometry": { "type": "LineString", "coordinates": [ [ 37.496622, 55.892288 ], [ 37.495939, 55.8919879 ] ] } },
{ "type": "Feature", "properties": { "osm_id": 156283297, "bridge": "yes", "bicycle": "no", "layer": "1", "highway": "trunk", "surface": "asphalt", "foot": "no", "name": "МКАД, 79-й километр", "oneway": "yes", "maxspeed": "100", "lanes": "5", "loc_ref": "МКАД", "motorroad": "yes", "lit": "yes", "postal_code": null, "int_ref": "E 22", "bridge:name": null, "wikipedia": null, "wikidata": null, "turn:lanes": null, "official_name": null, "start_date": null }, "geometry": { "type": "LineString", "coordinates": [ [ 37.4961689, 55.8918275 ], [ 37.4968475, 55.8921328 ] ] } },
{ "type": "Feature", "properties": { "osm_id": 32636097, "bridge": "yes", "bicycle": "no", "layer": "1", "highway": "trunk", "surface": "asphalt", "foot": "no", "name": "МКАД, 25-й километр", "oneway": "yes", "maxspeed": "100", "lanes": "5", "loc_ref": "МКАД", "motorroad": "yes", "lit": "yes", "postal_code": "115582", "int_ref": "E 30;AH6;E 115", "bridge:name": null, "wikipedia": null, "wikidata": null, "turn:lanes": null, "official_name": null, "start_date": null }, "geometry": { "type": "LineString", "coordinates": [ [ 37.7149885, 55.5858157 ], [ 37.7156728, 55.5860725 ] ] } },
{ "type": "Feature", "properties": { "osm_id": 32636099, "bridge": "yes", "bicycle": "no", "layer": "1", "highway": "trunk", "surface": "asphalt", "foot": "no", "name": "МКАД, 25-й километр", "oneway": "yes", "maxspeed": "100", "lanes": "6", "loc_ref": "МКАД", "motorroad": "yes", "lit": "yes", "postal_code": "115582", "int_ref": "E 30;AH6;E 115", "bridge:name": null, "wikipedia": null, "wikidata": null, "turn:lanes": null, "official_name": null, "start_date": null }, "geometry": { "type": "LineString", "coordinates": [ [ 37.7151934, 55.5861742 ], [ 37.7145045, 55.5859157 ] ] } },
{ "type": "Feature", "properties": { "osm_id": 24239566, "bridge": "yes", "bicycle": "no", "layer": "1", "highway": "trunk", "surface": "asphalt", "foot": "no", "name": "МКАД, 19-й километр", "oneway": "yes", "maxspeed": "100", "lanes": "5", "loc_ref": "МКАД", "motorroad": "yes", "lit": "yes", "postal_code": "115408", "int_ref": "E 30;AH6;E 115", "bridge:name": "Бесединский мост", "wikipedia": "ru:Бесединские мосты", "wikidata": "Q4085566", "turn:lanes": null, "official_name": null, "start_date": null }, "geometry": { "type": "LineString", "coordinates": [ [ 37.7916875, 55.622422 ], [ 37.7953214, 55.6244047 ] ] } },
{ "type": "Feature", "properties": { "osm_id": 30130905, "bridge": "yes", "bicycle": "no", "layer": "1", "highway": "trunk", "surface": "asphalt", "foot": "no", "name": "МКАД, 19-й километр", "oneway": "yes", "maxspeed": "100", "lanes": "5", "loc_ref": "МКАД", "motorroad": "yes", "lit": "yes", "postal_code": "115408", "int_ref": "E 30;AH6;E 115", "bridge:name": "Бесединский мост", "wikipedia": "ru:Бесединские мосты", "wikidata": "Q4085566", "turn:lanes": null, "official_name": null, "start_date": null }, "geometry": { "type": "LineString", "coordinates": [ [ 37.7948575, 55.6246757 ], [ 37.7912236, 55.622693 ] ] } },
{ "type": "Feature", "properties": { "osm_id": 180705708, "bridge": "yes", "bicycle": "no", "layer": "1", "highway": "trunk", "surface": "asphalt", "foot": "no", "name": "МКАД, 17-й километр", "oneway": "yes", "maxspeed": "100", "lanes": "5", "loc_ref": "МКАД", "motorroad": "yes", "lit": "yes", "postal_code": "109429", "int_ref": "E 30;AH6;E 115", "bridge:name": null, "wikipedia": null, "wikidata": null, "turn:lanes": null, "official_name": null, "start_date": null }, "geometry": { "type": "LineString", "coordinates": [ [ 37.8070865, 55.6324693 ], [ 37.8067411, 55.6322435 ] ] } },
{ "type": "Feature", "properties": { "osm_id": 180705707, "bridge": "yes", "bicycle": "no", "layer": "1", "highway": "trunk", "surface": "asphalt", "foot": "no", "name": "МКАД, 17-й километр", "oneway": "yes", "maxspeed": "100", "lanes": "5", "loc_ref": "МКАД", "motorroad": "yes", "lit": "yes", "postal_code": "109429", "int_ref": "E 30;AH6;E 115", "bridge:name": null, "wikipedia": null, "wikidata": null, "turn:lanes": null, "official_name": null, "start_date": null }, "geometry": { "type": "LineString", "coordinates": [ [ 37.8070607, 55.6320945 ], [ 37.8074061, 55.6323204 ] ] } },
{ "type": "Feature", "properties": { "osm_id": 48829503, "bridge": "yes", "bicycle": "no", "layer": "1", "highway": "trunk", "surface": "asphalt", "foot": "no", "name": "МКАД, 15-й километр", "oneway": "yes", "maxspeed": "100", "lanes": "5", "loc_ref": "МКАД", "motorroad": "yes", "lit": "yes", "postal_code": "109429", "int_ref": "E 30;AH6;E 115", "bridge:name": null, "wikipedia": null, "wikidata": null, "turn:lanes": null, "official_name": null, "start_date": null }, "geometry": { "type": "LineString", "coordinates": [ [ 37.8324585, 55.6490961 ], [ 37.8317254, 55.6486083 ] ] } },
{ "type": "Feature", "properties": { "osm_id": 48829504, "bridge": "yes", "bicycle": "no", "layer": "1", "highway": "trunk", "surface": "asphalt", "foot": "no", "name": "МКАД, 15-й километр", "oneway": "yes", "maxspeed": "100", "lanes": "5", "loc_ref": "МКАД", "motorroad": "yes", "lit": "yes", "postal_code": "109429", "int_ref": "E 30;AH6;E 115", "bridge:name": null, "wikipedia": null, "wikidata": null, "turn:lanes": null, "official_name": null, "start_date": null }, "geometry": { "type": "LineString", "coordinates": [ [ 37.832122, 55.6485109 ], [ 37.8327969, 55.6489693 ], [ 37.8328498, 55.6490043 ] ] } },
{ "type": "Feature", "properties": { "osm_id": 85732892, "bridge": "yes", "bicycle": "no", "layer": "1", "highway": "trunk", "surface": "asphalt", "foot": "no", "name": "МКАД, 8-й километр", "oneway": "yes", "maxspeed": "100", "lanes": "5", "loc_ref": "МКАД", "motorroad": "yes", "lit": "yes", "postal_code": "109145", "int_ref": "E 115", "bridge:name": null, "wikipedia": null, "wikidata": null, "turn:lanes": null, "official_name": null, "start_date": null }, "geometry": { "type": "LineString", "coordinates": [ [ 37.8349814, 55.7082942 ], [ 37.8346608, 55.7076895 ] ] } },
{ "type": "Feature", "properties": { "osm_id": 85732887, "bridge": "yes", "bicycle": "no", "layer": "1", "highway": "trunk", "surface": "asphalt", "foot": "no", "name": "МКАД, 8-й километр", "oneway": "yes", "maxspeed": "100", "lanes": "5", "loc_ref": "МКАД", "motorroad": "yes", "lit": "yes", "postal_code": "109145", "int_ref": "E 115", "bridge:name": null, "wikipedia": null, "wikidata": null, "turn:lanes": null, "official_name": null, "start_date": null }, "geometry": { "type": "LineString", "coordinates": [ [ 37.8350586, 55.7076225 ], [ 37.8353773, 55.7082304 ] ] } },
{ "type": "Feature", "properties": { "osm_id": 73627149, "bridge": "yes", "bicycle": "no", "layer": "1", "highway": "trunk", "surface": "asphalt", "foot": "no", "name": null, "oneway": "yes", "maxspeed": "100", "lanes": "5", "loc_ref": "МКАД", "motorroad": "yes", "lit": "yes", "postal_code": "109145", "int_ref": "E 115", "bridge:name": null, "wikipedia": null, "wikidata": null, "turn:lanes": null, "official_name": null, "start_date": null }, "geometry": { "type": "LineString", "coordinates": [ [ 37.8360163, 55.7102352 ], [ 37.8356403, 55.7095294 ] ] } },
{ "type": "Feature", "properties": { "osm_id": 73627151, "bridge": "yes", "bicycle": "no", "layer": "1", "highway": "trunk", "surface": "asphalt", "foot": "no", "name": null, "oneway": "yes", "maxspeed": "100", "lanes": "5", "loc_ref": "МКАД", "motorroad": "yes", "lit": "yes", "postal_code": "109145", "int_ref": "E 115", "bridge:name": null, "wikipedia": null, "wikidata": null, "turn:lanes": null, "official_name": null, "start_date": null }, "geometry": { "type": "LineString", "coordinates": [ [ 37.8360121, 55.7094142 ], [ 37.8363049, 55.7099622 ], [ 37.8363837, 55.7101109 ] ] } },
{ "type": "Feature", "properties": { "osm_id": 156283305, "bridge": "yes", "bicycle": "no", "layer": "1", "highway": "trunk", "surface": "asphalt", "foot": "no", "name": "МКАД, 90-й километр", "oneway": "yes", "maxspeed": "100", "lanes": "5", "loc_ref": "МКАД", "motorroad": "yes", "lit": "yes", "postal_code": "127282", "int_ref": "E 22", "bridge:name": null, "wikipedia": null, "wikidata": null, "turn:lanes": null, "official_name": null, "start_date": null }, "geometry": { "type": "LineString", "coordinates": [ [ 37.672412, 55.8950833 ], [ 37.6738777, 55.8950376 ] ] } },
{ "type": "Feature", "properties": { "osm_id": 156283307, "bridge": "yes", "bicycle": "no", "layer": "1", "highway": "trunk", "surface": "asphalt", "foot": "no", "name": "МКАД, 90-й километр", "oneway": "yes", "maxspeed": "100", "lanes": "5", "loc_ref": "МКАД", "motorroad": "yes", "lit": "yes", "postal_code": "127282", "int_ref": "E 22", "bridge:name": null, "wikipedia": null, "wikidata": null, "turn:lanes": null, "official_name": null, "start_date": null }, "geometry": { "type": "LineString", "coordinates": [ [ 37.6738318, 55.8952753 ], [ 37.672391, 55.8953159 ] ] } },
{ "type": "Feature", "properties": { "osm_id": 386753774, "bridge": "yes", "bicycle": "no", "layer": "1", "highway": "trunk", "surface": "asphalt", "foot": "no", "name": "МКАД, 91-й километр", "oneway": "yes", "maxspeed": "100", "lanes": "5", "loc_ref": "МКАД", "motorroad": "yes", "lit": "yes", "postal_code": null, "int_ref": "E 22", "bridge:name": null, "wikipedia": null, "wikidata": null, "turn:lanes": null, "official_name": null, "start_date": null }, "geometry": { "type": "LineString", "coordinates": [ [ 37.6849343, 55.8947487 ], [ 37.6855975, 55.894731 ] ] } },
{ "type": "Feature", "properties": { "osm_id": 386753773, "bridge": "yes", "bicycle": "no", "layer": "1", "highway": "trunk", "surface": "asphalt", "foot": "no", "name": "МКАД, 91-й километр", "oneway": "yes", "maxspeed": "100", "lanes": "6", "loc_ref": "МКАД", "motorroad": "yes", "lit": "yes", "postal_code": null, "int_ref": "E 22", "bridge:name": null, "wikipedia": null, "wikidata": null, "turn:lanes": null, "official_name": null, "start_date": null }, "geometry": { "type": "LineString", "coordinates": [ [ 37.6856174, 55.8949657 ], [ 37.6849543, 55.8949843 ] ] } },
{ "type": "Feature", "properties": { "osm_id": 23014598, "bridge": "yes", "bicycle": "no", "layer": "1", "highway": "trunk", "surface": "asphalt", "foot": "no", "name": "МКАД, 94-й километр", "oneway": "yes", "maxspeed": "100", "lanes": "7", "loc_ref": "МКАД", "motorroad": "yes", "lit": "yes", "postal_code": null, "int_ref": "E 22", "bridge:name": null, "wikipedia": null, "wikidata": null, "turn:lanes": "through|through|through|through|through;slight_right|slight_right|slight_right", "official_name": "Путепровод автодорожный «Ярославский железная дорога Московская кольцевая автомобильная дорога»", "start_date": "1960" }, "geometry": { "type": "LineString", "coordinates": [ [ 37.718555, 55.8858863 ], [ 37.7198521, 55.8852119 ] ] } },
{ "type": "Feature", "properties": { "osm_id": 79431791, "bridge": "yes", "bicycle": "no", "layer": "1", "highway": "trunk", "surface": "asphalt", "foot": "no", "name": "МКАД, 94-й километр", "oneway": "yes", "maxspeed": "100", "lanes": "6", "loc_ref": "МКАД", "motorroad": "yes", "lit": "yes", "postal_code": null, "int_ref": "E 22", "bridge:name": null, "wikipedia": null, "wikidata": null, "turn:lanes": null, "official_name": "Путепровод автодорожный «Ярославский железная дорога Московская кольцевая автомобильная дорога»", "start_date": "1960" }, "geometry": { "type": "LineString", "coordinates": [ [ 37.720144, 55.8853811 ], [ 37.7188216, 55.8860665 ] ] } },
{ "type": "Feature", "properties": { "osm_id": 156283312, "bridge": "yes", "bicycle": "no", "layer": "1", "highway": "trunk", "surface": "asphalt", "foot": "no", "name": "МКАД, 94-й километр", "oneway": "yes", "maxspeed": "100", "lanes": "5", "loc_ref": "МКАД", "motorroad": "yes", "lit": "yes", "postal_code": null, "int_ref": "E 22", "bridge:name": null, "wikipedia": null, "wikidata": null, "turn:lanes": "through|through|through|through|through;slight_right", "official_name": null, "start_date": null }, "geometry": { "type": "LineString", "coordinates": [ [ 37.7251476, 55.8824835 ], [ 37.7262762, 55.8819151 ] ] } },
{ "type": "Feature", "properties": { "osm_id": 156283313, "bridge": "yes", "bicycle": "no", "layer": "1", "highway": "trunk", "surface": "asphalt", "foot": "no", "name": "МКАД, 94-й километр", "oneway": "yes", "maxspeed": "100", "lanes": "5", "loc_ref": "МКАД", "motorroad": "yes", "lit": "yes", "postal_code": null, "int_ref": "E 22", "bridge:name": null, "wikipedia": null, "wikidata": null, "turn:lanes": "through|through|through|through|through;slight_right", "official_name": null, "start_date": null }, "geometry": { "type": "LineString", "coordinates": [ [ 37.7265627, 55.8821016 ], [ 37.7254404, 55.8826739 ] ] } },
{ "type": "Feature", "properties": { "osm_id": 29416514, "bridge": "yes", "bicycle": "no", "layer": "1", "highway": "trunk", "surface": "asphalt", "foot": "no", "name": "МКАД, 4-й километр", "oneway": "yes", "maxspeed": "100", "lanes": "5", "loc_ref": "МКАД", "motorroad": "yes", "lit": "yes", "postal_code": "111402", "int_ref": "E 115", "bridge:name": null, "wikipedia": null, "wikidata": null, "turn:lanes": null, "official_name": null, "start_date": null }, "geometry": { "type": "LineString", "coordinates": [ [ 37.8418579, 55.7492523 ], [ 37.841835, 55.7485809 ] ] } },
{ "type": "Feature", "properties": { "osm_id": 29416512, "bridge": "yes", "bicycle": "no", "layer": "1", "highway": "trunk", "surface": "asphalt", "foot": "no", "name": "МКАД, 4-й километр", "oneway": "yes", "maxspeed": "100", "lanes": "5", "loc_ref": "МКАД", "motorroad": "yes", "lit": "yes", "postal_code": "111402", "int_ref": "E 115", "bridge:name": null, "wikipedia": null, "wikidata": null, "turn:lanes": null, "official_name": null, "start_date": null }, "geometry": { "type": "LineString", "coordinates": [ [ 37.8423004, 55.7486916 ], [ 37.8423233, 55.7493477 ] ] } },
{ "type": "Feature", "properties": { "osm_id": 156283204, "bridge": "yes", "bicycle": "no", "layer": "1", "highway": "trunk", "surface": "asphalt", "foot": "no", "name": "МКАД, 1-й километр", "oneway": "yes", "maxspeed": "100", "lanes": "5", "loc_ref": "МКАД", "motorroad": "yes", "lit": "yes", "postal_code": "111531", "int_ref": "E 115", "bridge:name": null, "wikipedia": null, "wikidata": null, "turn:lanes": null, "official_name": null, "start_date": null }, "geometry": { "type": "LineString", "coordinates": [ [ 37.8424988, 55.7768517 ], [ 37.8425331, 55.7764397 ] ] } },
{ "type": "Feature", "properties": { "osm_id": 156283210, "bridge": "yes", "bicycle": "no", "layer": "1", "highway": "trunk", "surface": "asphalt", "foot": "no", "name": "МКАД, 1-й километр", "oneway": "yes", "maxspeed": "100", "lanes": "5", "loc_ref": "МКАД", "motorroad": "yes", "lit": "yes", "postal_code": "111531", "int_ref": "E 115", "bridge:name": null, "wikipedia": null, "wikidata": null, "turn:lanes": null, "official_name": null, "start_date": null }, "geometry": { "type": "LineString", "coordinates": [ [ 37.8429365, 55.7765472 ], [ 37.842885, 55.7769562 ] ] } },
{ "type": "Feature", "properties": { "osm_id": 156283220, "bridge": "yes", "bicycle": "no", "layer": "1", "highway": "trunk", "surface": "asphalt", "foot": "no", "name": "МКАД, 109-й километр", "oneway": "yes", "maxspeed": "100", "lanes": "5", "loc_ref": "МКАД", "motorroad": "yes", "lit": "yes", "postal_code": "105568", "int_ref": "E 115", "bridge:name": null, "wikipedia": null, "wikidata": null, "turn:lanes": null, "official_name": null, "start_date": null }, "geometry": { "type": "LineString", "coordinates": [ [ 37.8424606, 55.7772751 ], [ 37.8424988, 55.7768517 ] ] } },
{ "type": "Feature", "properties": { "osm_id": 165467001, "bridge": "yes", "bicycle": "no", "layer": "1", "highway": "trunk", "surface": "asphalt", "foot": "no", "name": "МКАД, 109-й километр", "oneway": "yes", "maxspeed": "100", "lanes": "5", "loc_ref": "МКАД", "motorroad": "yes", "lit": "yes", "postal_code": "105568", "int_ref": "E 115", "bridge:name": null, "wikipedia": null, "wikidata": null, "turn:lanes": null, "official_name": null, "start_date": null }, "geometry": { "type": "LineString", "coordinates": [ [ 37.842885, 55.7769562 ], [ 37.8428433, 55.7773793 ] ] } },
{ "type": "Feature", "properties": { "osm_id": 11253110, "bridge": "yes", "bicycle": "no", "layer": "1", "highway": "trunk", "surface": "asphalt", "foot": "no", "name": "МКАД, 82-й километр", "oneway": "yes", "maxspeed": "100", "lanes": "5", "loc_ref": "МКАД", "motorroad": "yes", "lit": "yes", "postal_code": "127253", "int_ref": "E 22", "bridge:name": null, "wikipedia": null, "wikidata": null, "turn:lanes": null, "official_name": null, "start_date": null }, "geometry": { "type": "LineString", "coordinates": [ [ 37.5349044, 55.9067591 ], [ 37.5383995, 55.9071497 ] ] } },
{ "type": "Feature", "properties": { "osm_id": 85709231, "bridge": "yes", "bicycle": "no", "layer": "1", "highway": "trunk", "surface": "asphalt", "foot": "no", "name": "МКАД, 82-й километр", "oneway": "yes", "maxspeed": "100", "lanes": "5", "loc_ref": "МКАД", "motorroad": "yes", "lit": "yes", "postal_code": "127253", "int_ref": "E 22", "bridge:name": null, "wikipedia": null, "wikidata": null, "turn:lanes": null, "official_name": null, "start_date": null }, "geometry": { "type": "LineString", "coordinates": [ [ 37.5383335, 55.9073492 ], [ 37.5346812, 55.9069431 ] ] } },
{ "type": "Feature", "properties": { "osm_id": 85709228, "bridge": "yes", "bicycle": "no", "layer": "1", "highway": "trunk", "surface": "asphalt", "foot": "no", "name": "МКАД, 82-й километр", "oneway": "yes", "maxspeed": "100", "lanes": "5", "loc_ref": "МКАД", "motorroad": "yes", "lit": "yes", "postal_code": "127253", "int_ref": "E 22", "bridge:name": null, "wikipedia": null, "wikidata": null, "turn:lanes": null, "official_name": null, "start_date": null }, "geometry": { "type": "LineString", "coordinates": [ [ 37.5430531, 55.907621 ], [ 37.5441303, 55.9077379 ] ] } },
{ "type": "Feature", "properties": { "osm_id": 85709232, "bridge": "yes", "bicycle": "no", "layer": "1", "highway": "trunk", "surface": "asphalt", "foot": "no", "name": "МКАД, 82-й километр", "oneway": "yes", "maxspeed": "100", "lanes": "5", "loc_ref": "МКАД", "motorroad": "yes", "lit": "yes", "postal_code": "127253", "int_ref": "E 22", "bridge:name": null, "wikipedia": null, "wikidata": null, "turn:lanes": null, "official_name": null, "start_date": null }, "geometry": { "type": "LineString", "coordinates": [ [ 37.5441717, 55.9079742 ], [ 37.5431034, 55.9078594 ] ] } }
]
}
