{
"type": "FeatureCollection",
"name": "bridges",
"crs": { "type": "name", "properties": { "name": "urn:ogc:def:crs:OGC:1.3:CRS84" } },
"features": [
{ "type": "Feature", "properties": { "osm_id": 31768360, "bridge": "yes", "layer": "1", "ref": "А-108", "highway": "trunk", "surface": "asphalt", "oneway": "yes", "name": null, "maxspeed": null, "lanes": null, "lit": null, "lanes:backward": null, "lanes:forward": null, "turn:lanes:forward": null, "forward": null, "sidewalk": null, "int_ref": null }, "geometry": { "type": "LineString", "coordinates": [ [ 36.3228747, 55.6437908 ], [ 36.3249641, 55.6432944 ] ] } },
{ "type": "Feature", "properties": { "osm_id": 31768363, "bridge": "yes", "layer": "1", "ref": "А-108", "highway": "trunk", "surface": "asphalt", "oneway": "yes", "name": null, "maxspeed": null, "lanes": null, "lit": null, "lanes:backward": null, "lanes:forward": null, "turn:lanes:forward": null, "forward": null, "sidewalk": null, "int_ref": null }, "geometry": { "type": "LineString", "coordinates": [ [ 36.3253402, 55.6434607 ], [ 36.3250716, 55.6436176 ], [ 36.3237079, 55.6443953 ] ] } },
{ "type": "Feature", "properties": { "osm_id": 32263171, "bridge": "yes", "layer": "1", "ref": "А-108", "highway": "trunk", "surface": "asphalt", "oneway": null, "name": null, "maxspeed": "RU:urban", "lanes": "2", "lit": null, "lanes:backward": null, "lanes:forward": null, "turn:lanes:forward": null, "forward": null, "sidewalk": null, "int_ref": null }, "geometry": { "type": "LineString", "coordinates": [ [ 36.3899423, 55.5489696 ], [ 36.3884021, 55.5507551 ] ] } },
{ "type": "Feature", "properties": { "osm_id": 32257893, "bridge": "yes", "layer": "1", "ref": "А-108", "highway": "trunk", "surface": "asphalt", "oneway": null, "name": null, "maxspeed": null, "lanes": null, "lit": null, "lanes:backward": null, "lanes:forward": null, "turn:lanes:forward": null, "forward": null, "sidewalk": null, "int_ref": null }, "geometry": { "type": "LineString", "coordinates": [ [ 36.2603348, 55.7592638 ], [ 36.261349, 55.7621265 ] ] } },
{ "type": "Feature", "properties": { "osm_id": 32257895, "bridge": "yes", "layer": "1", "ref": "А-108", "highway": "trunk", "surface": "asphalt", "oneway": null, "name": null, "maxspeed": null, "lanes": null, "lit": null, "lanes:backward": null, "lanes:forward": null, "turn:lanes:forward": null, "forward": null, "sidewalk": null, "int_ref": null }, "geometry": { "type": "LineString", "coordinates": [ [ 36.2753945, 55.783821 ], [ 36.2759557, 55.7843764 ] ] } },
{ "type": "Feature", "properties": { "osm_id": 32258018, "bridge": "yes", "layer": "1", "ref": "А-108", "highway": "trunk", "surface": "asphalt", "oneway": null, "name": null, "maxspeed": null, "lanes": null, "lit": null, "lanes:backward": null, "lanes:forward": null, "turn:lanes:forward": null, "forward": null, "sidewalk": null, "int_ref": null }, "geometry": { "type": "LineString", "coordinates": [ [ 36.351266, 55.848556 ], [ 36.352164, 55.8488463 ] ] } },
{ "type": "Feature", "properties": { "osm_id": 362753400, "bridge": "yes", "layer": "1", "ref": "А-108", "highway": "trunk", "surface": "asphalt", "oneway": null, "name": null, "maxspeed": null, "lanes": null, "lit": null, "lanes:backward": null, "lanes:forward": null, "turn:lanes:forward": null, "forward": null, "sidewalk": null, "int_ref": null }, "geometry": { "type": "LineString", "coordinates": [ [ 36.4307195, 55.8964661 ], [ 36.4311057, 55.8968719 ] ] } },
{ "type": "Feature", "properties": { "osm_id": 362753403, "bridge": "yes", "layer": null, "ref": "А-108", "highway": "trunk", "surface": "asphalt", "oneway": null, "name": null, "maxspeed": null, "lanes": null, "lit": null, "lanes:backward": null, "lanes:forward": null, "turn:lanes:forward": null, "forward": null, "sidewalk": null, "int_ref": null }, "geometry": { "type": "LineString", "coordinates": [ [ 36.4379428, 55.9199945 ], [ 36.4378175, 55.9202662 ] ] } },
{ "type": "Feature", "properties": { "osm_id": 172637390, "bridge": "yes", "layer": "1", "ref": "А-108", "highway": "trunk", "surface": "asphalt", "oneway": null, "name": null, "maxspeed": "90", "lanes": "2", "lit": null, "lanes:backward": null, "lanes:forward": null, "turn:lanes:forward": null, "forward": null, "sidewalk": null, "int_ref": null }, "geometry": { "type": "LineString", "coordinates": [ [ 36.502256, 56.0637492 ], [ 36.5020913, 56.0640346 ] ] } },
{ "type": "Feature", "properties": { "osm_id": 561033745, "bridge": "yes", "layer": "1", "ref": "А-108", "highway": "trunk", "surface": "asphalt", "oneway": null, "name": null, "maxspeed": "90", "lanes": null, "lit": null, "lanes:backward": null, "lanes:forward": null, "turn:lanes:forward": null, "forward": null, "sidewalk": null, "int_ref": null }, "geometry": { "type": "LineString", "coordinates": [ [ 36.5495787, 56.1051097 ], [ 36.5503995, 56.1055016 ] ] } },
{ "type": "Feature", "properties": { "osm_id": 157016823, "bridge": "yes", "layer": "1", "ref": "А-108", "highway": "trunk", "surface": "asphalt", "oneway": "no", "name": null, "maxspeed": "90", "lanes": "2", "lit": null, "lanes:backward": null, "lanes:forward": null, "turn:lanes:forward": null, "forward": null, "sidewalk": null, "int_ref": null }, "geometry": { "type": "LineString", "coordinates": [ [ 37.3478078, 54.9786797 ], [ 37.3459048, 54.9791761 ] ] } },
{ "type": "Feature", "properties": { "osm_id": 39881264, "bridge": "yes", "layer": "1", "ref": null, "highway": "trunk", "surface": "asphalt", "oneway": "yes", "name": null, "maxspeed": "90", "lanes": null, "lit": null, "lanes:backward": null, "lanes:forward": null, "turn:lanes:forward": null, "forward": null, "sidewalk": null, "int_ref": null }, "geometry": { "type": "LineString", "coordinates": [ [ 37.4215449, 54.998698 ], [ 37.4218096, 54.9990661 ] ] } },
{ "type": "Feature", "properties": { "osm_id": 676860103, "bridge": "yes", "layer": "1", "ref": "А-108", "highway": "trunk", "surface": "asphalt", "oneway": null, "name": null, "maxspeed": "RU:rural", "lanes": null, "lit": null, "lanes:backward": null, "lanes:forward": null, "turn:lanes:forward": null, "forward": null, "sidewalk": null, "int_ref": null }, "geometry": { "type": "LineString", "coordinates": [ [ 37.4719859, 55.0301749 ], [ 37.4740956, 55.0303223 ] ] } },
{ "type": "Feature", "properties": { "osm_id": 31785621, "bridge": "yes", "layer": "1", "ref": "А-108", "highway": "trunk", "surface": "asphalt", "oneway": null, "name": null, "maxspeed": "90", "lanes": "2", "lit": null, "lanes:backward": null, "lanes:forward": null, "turn:lanes:forward": null, "forward": null, "sidewalk": null, "int_ref": null }, "geometry": { "type": "LineString", "coordinates": [ [ 37.5593028, 55.0365304 ], [ 37.5580193, 55.0364284 ] ] } },
{ "type": "Feature", "properties": { "osm_id": 32261983, "bridge": "yes", "layer": "1", "ref": "А-108", "highway": "trunk", "surface": "asphalt", "oneway": null, "name": null, "maxspeed": "RU:urban", "lanes": "2", "lit": null, "lanes:backward": null, "lanes:forward": null, "turn:lanes:forward": null, "forward": null, "sidewalk": null, "int_ref": null }, "geometry": { "type": "LineString", "coordinates": [ [ 37.7631423, 55.0543223 ], [ 37.7627005, 55.0536206 ] ] } },
{ "type": "Feature", "properties": { "osm_id": 132654236, "bridge": "yes", "layer": "1", "ref": "А-108", "highway": "trunk", "surface": "asphalt", "oneway": null, "name": null, "maxspeed": "60", "lanes": null, "lit": null, "lanes:backward": null, "lanes:forward": null, "turn:lanes:forward": null, "forward": null, "sidewalk": null, "int_ref": null }, "geometry": { "type": "LineString", "coordinates": [ [ 36.6412842, 56.2130629 ], [ 36.6416401, 56.2132623 ] ] } },
{ "type": "Feature", "properties": { "osm_id": 458719136, "bridge": "yes", "layer": "1", "ref": "А-108", "highway": "trunk", "surface": "asphalt", "oneway": null, "name": null, "maxspeed": "60", "lanes": "2", "lit": null, "lanes:backward": null, "lanes:forward": null, "turn:lanes:forward": null, "forward": null, "sidewalk": null, "int_ref": null }, "geometry": { "type": "LineString", "coordinates": [ [ 37.973338, 55.0840569 ], [ 37.9728771, 55.0839095 ] ] } },
{ "type": "Feature", "properties": { "osm_id": 555165951, "bridge": "yes", "layer": "1", "ref": "А-108", "highway": "trunk", "surface": "asphalt", "oneway": null, "name": null, "maxspeed": "60", "lanes": "2", "lit": null, "lanes:backward": null, "lanes:forward": null, "turn:lanes:forward": null, "forward": null, "sidewalk": null, "int_ref": null }, "geometry": { "type": "LineString", "coordinates": [ [ 37.9872303, 55.0884566 ], [ 37.9864453, 55.0882068 ] ] } },
{ "type": "Feature", "properties": { "osm_id": 399383147, "bridge": "yes", "layer": "1", "ref": "А-108", "highway": "trunk", "surface": "asphalt", "oneway": null, "name": null, "maxspeed": "60", "lanes": "2", "lit": null, "lanes:backward": null, "lanes:forward": null, "turn:lanes:forward": null, "forward": null, "sidewalk": null, "int_ref": null }, "geometry": { "type": "LineString", "coordinates": [ [ 38.1241505, 55.1090248 ], [ 38.122976, 55.1087488 ] ] } },
{ "type": "Feature", "properties": { "osm_id": 99255409, "bridge": "yes", "layer": "1", "ref": "А-108", "highway": "trunk", "surface": "asphalt", "oneway": null, "name": null, "maxspeed": null, "lanes": null, "lit": null, "lanes:backward": null, "lanes:forward": null, "turn:lanes:forward": null, "forward": null, "sidewalk": null, "int_ref": null }, "geometry": { "type": "LineString", "coordinates": [ [ 38.2034604, 55.1174627 ], [ 38.202759, 55.1172848 ] ] } },
{ "type": "Feature", "properties": { "osm_id": 32261576, "bridge": "yes", "layer": "1", "ref": "А-108", "highway": "trunk", "surface": "asphalt", "oneway": null, "name": null, "maxspeed": "RU:urban", "lanes": "2", "lit": "yes", "lanes:backward": null, "lanes:forward": null, "turn:lanes:forward": null, "forward": null, "sidewalk": null, "int_ref": null }, "geometry": { "type": "LineString", "coordinates": [ [ 38.360967, 55.1902959 ], [ 38.3601937, 55.1896271 ] ] } },
{ "type": "Feature", "properties": { "osm_id": 27485999, "bridge": "yes", "layer": "1", "ref": "А-108", "highway": "trunk", "surface": "asphalt", "oneway": null, "name": null, "maxspeed": "90", "lanes": "4", "lit": null, "lanes:backward": null, "lanes:forward": null, "turn:lanes:forward": null, "forward": null, "sidewalk": null, "int_ref": null }, "geometry": { "type": "LineString", "coordinates": [ [ 38.6380552, 55.3243824 ], [ 38.641413, 55.32624 ] ] } },
{ "type": "Feature", "properties": { "osm_id": 430406252, "bridge": "yes", "layer": "1", "ref": "А-108", "highway": "trunk", "surface": "asphalt", "oneway": null, "name": null, "maxspeed": "90", "lanes": "4", "lit": null, "lanes:backward": "2", "lanes:forward": "2", "turn:lanes:forward": "|through;slight_right", "forward": null, "sidewalk": null, "int_ref": null }, "geometry": { "type": "LineString", "coordinates": [ [ 38.641413, 55.32624 ], [ 38.6419247, 55.3265241 ] ] } },
{ "type": "Feature", "properties": { "osm_id": 56057096, "bridge": "yes", "layer": "1", "ref": "А-108", "highway": "trunk", "surface": "asphalt", "oneway": null, "name": null, "maxspeed": null, "lanes": "2", "lit": null, "lanes:backward": null, "lanes:forward": null, "turn:lanes:forward": null, "forward": null, "sidewalk": null, "int_ref": null }, "geometry": { "type": "LineString", "coordinates": [ [ 38.6865295, 55.3429112 ], [ 38.6845647, 55.3424878 ] ] } },
{ "type": "Feature", "properties": { "osm_id": 453537391, "bridge": "yes", "layer": "1", "ref": "А-108", "highway": "trunk", "surface": "asphalt", "oneway": null, "name": null, "maxspeed": null, "lanes": "2", "lit": null, "lanes:backward": null, "lanes:forward": null, "turn:lanes:forward": null, "forward": null, "sidewalk": null, "int_ref": null }, "geometry": { "type": "LineString", "coordinates": [ [ 38.7341699, 55.3588764 ], [ 38.734045, 55.3584829 ] ] } },
{ "type": "Feature", "properties": { "osm_id": 42203077, "bridge": "yes", "layer": "1", "ref": "А-108", "highway": "trunk", "surface": "asphalt", "oneway": "no", "name": null, "maxspeed": null, "lanes": "2", "lit": null, "lanes:backward": null, "lanes:forward": null, "turn:lanes:forward": null, "forward": null, "sidewalk": null, "int_ref": null }, "geometry": { "type": "LineString", "coordinates": [ [ 38.8722184, 55.488693 ], [ 38.8725265, 55.4897242 ] ] } },
{ "type": "Feature", "properties": { "osm_id": 424026678, "bridge": "yes", "layer": "1", "ref": "А-108", "highway": "trunk", "surface": "asphalt", "oneway": null, "name": null, "maxspeed": null, "lanes": null, "lit": null, "lanes:backward": null, "lanes:forward": null, "turn:lanes:forward": null, "forward": null, "sidewalk": null, "int_ref": null }, "geometry": { "type": "LineString", "coordinates": [ [ 38.8724351, 55.5064879 ], [ 38.8724517, 55.5069211 ] ] } },
{ "type": "Feature", "properties": { "osm_id": 478643892, "bridge": "yes", "layer": "1", "ref": "А-108", "highway": "trunk", "surface": "asphalt", "oneway": null, "name": null, "maxspeed": null, "lanes": null, "lit": null, "lanes:backward": null, "lanes:forward": null, "turn:lanes:forward": null, "forward": null, "sidewalk": null, "int_ref": null }, "geometry": { "type": "LineString", "coordinates": [ [ 38.8715936, 55.5159583 ], [ 38.8716058, 55.5162178 ] ] } },
{ "type": "Feature", "properties": { "osm_id": 107413502, "bridge": "yes", "layer": "1", "ref": "А-108", "highway": "trunk", "surface": "asphalt", "oneway": null, "name": null, "maxspeed": null, "lanes": "2", "lit": null, "lanes:backward": null, "lanes:forward": null, "turn:lanes:forward": null, "forward": null, "sidewalk": null, "int_ref": null }, "geometry": { "type": "LineString", "coordinates": [ [ 38.6347902, 56.1048766 ], [ 38.6359068, 56.1045372 ], [ 38.6360849, 56.104483 ] ] } },
{ "type": "Feature", "properties": { "osm_id": 27608730, "bridge": "yes", "layer": "1", "ref": "А-108", "highway": "trunk", "surface": "asphalt", "oneway": null, "name": null, "maxspeed": null, "lanes": null, "lit": null, "lanes:backward": null, "lanes:forward": null, "turn:lanes:forward": null, "forward": null, "sidewalk": null, "int_ref": null }, "geometry": { "type": "LineString", "coordinates": [ [ 38.8844603, 55.5708108 ], [ 38.8849795, 55.5713522 ] ] } },
{ "type": "Feature", "properties": { "osm_id": 46578429, "bridge": "yes", "layer": "1", "ref": "А-108", "highway": "trunk", "surface": "asphalt", "oneway": null, "name": null, "maxspeed": null, "lanes": null, "lit": null, "lanes:backward": null, "lanes:forward": null, "turn:lanes:forward": null, "forward": null, "sidewalk": null, "int_ref": null }, "geometry": { "type": "LineString", "coordinates": [ [ 38.8890723, 55.5802296 ], [ 38.8893497, 55.5810712 ] ] } },
{ "type": "Feature", "properties": { "osm_id": 38756077, "bridge": "yes", "layer": "1", "ref": "А-108", "highway": "trunk", "surface": "asphalt", "oneway": null, "name": null, "maxspeed": null, "lanes": null, "lit": null, "lanes:backward": null, "lanes:forward": null, "turn:lanes:forward": null, "forward": null, "sidewalk": null, "int_ref": null }, "geometry": { "type": "LineString", "coordinates": [ [ 38.8965538, 55.5863927 ], [ 38.8977702, 55.5865755 ] ] } },
{ "type": "Feature", "properties": { "osm_id": 45942233, "bridge": "yes", "layer": "1", "ref": "А-108", "highway": "trunk", "surface": "asphalt", "oneway": null, "name": null, "maxspeed": null, "lanes": null, "lit": null, "lanes:backward": null, "lanes:forward": null, "turn:lanes:forward": null, "forward": null, "sidewalk": null, "int_ref": null }, "geometry": { "type": "LineString", "coordinates": [ [ 38.9293551, 55.6348207 ], [ 38.9291899, 55.635319 ] ] } },
{ "type": "Feature", "properties": { "osm_id": 187799084, "bridge": "yes", "layer": "1", "ref": "А-108", "highway": "trunk", "surface": "asphalt", "oneway": null, "name": null, "maxspeed": "60", "lanes": "4", "lit": null, "lanes:backward": null, "lanes:forward": null, "turn:lanes:forward": null, "forward": null, "sidewalk": null, "int_ref": null }, "geometry": { "type": "LineString", "coordinates": [ [ 38.9639349, 55.7814882 ], [ 38.9638335, 55.7817505 ], [ 38.963482, 55.782598 ] ] } },
{ "type": "Feature", "properties": { "osm_id": 28142311, "bridge": "yes", "layer": "1", "ref": "А-108", "highway": "trunk", "surface": "asphalt", "oneway": null, "name": null, "maxspeed": null, "lanes": "3", "lit": null, "lanes:backward": null, "lanes:forward": null, "turn:lanes:forward": null, "forward": "1", "sidewalk": "both", "int_ref": null }, "geometry": { "type": "LineString", "coordinates": [ [ 38.9705697, 55.8048256 ], [ 38.9718039, 55.8041436 ] ] } },
{ "type": "Feature", "properties": { "osm_id": 225071249, "bridge": "yes", "layer": "1", "ref": "А-108", "highway": "trunk", "surface": "asphalt", "oneway": "yes", "name": null, "maxspeed": null, "lanes": "2", "lit": null, "lanes:backward": null, "lanes:forward": null, "turn:lanes:forward": null, "forward": null, "sidewalk": null, "int_ref": null }, "geometry": { "type": "LineString", "coordinates": [ [ 38.8893963, 55.8596959 ], [ 38.8906811, 55.8587365 ] ] } },
{ "type": "Feature", "properties": { "osm_id": 61294899, "bridge": "yes", "layer": "1", "ref": "М-7;А-108", "highway": "trunk", "surface": "asphalt", "oneway": "yes", "name": null, "maxspeed": "RU:rural", "lanes": "2", "lit": null, "lanes:backward": null, "lanes:forward": null, "turn:lanes:forward": null, "forward": null, "sidewalk": null, "int_ref": "E 22" }, "geometry": { "type": "LineString", "coordinates": [ [ 38.9188686, 55.8665456 ], [ 38.9196009, 55.8667433 ] ] } },
{ "type": "Feature", "properties": { "osm_id": 38479349, "bridge": "yes", "layer": "1", "ref": "М-7;А-108", "highway": "trunk", "surface": "asphalt", "oneway": "yes", "name": null, "maxspeed": "RU:rural", "lanes": "2", "lit": null, "lanes:backward": null, "lanes:forward": null, "turn:lanes:forward": null, "forward": null, "sidewalk": null, "int_ref": "E 22" }, "geometry": { "type": "LineString", "coordinates": [ [ 38.9195408, 55.8668431 ], [ 38.9187699, 55.8666471 ] ] } },
{ "type": "Feature", "properties": { "osm_id": 132696033, "bridge": "yes", "layer": null, "ref": "А-108", "highway": "trunk", "surface": "asphalt", "oneway": null, "name": null, "maxspeed": "90", "lanes": null, "lit": null, "lanes:backward": null, "lanes:forward": null, "turn:lanes:forward": null, "forward": null, "sidewalk": null, "int_ref": null }, "geometry": { "type": "LineString", "coordinates": [ [ 38.9624589, 55.861954 ], [ 38.9624435, 55.8615443 ] ] } },
{ "type": "Feature", "properties": { "osm_id": 594553958, "bridge": "yes", "layer": "1", "ref": "А-108", "highway": "trunk", "surface": "asphalt", "oneway": null, "name": null, "maxspeed": "RU:rural", "lanes": "2", "lit": null, "lanes:backward": null, "lanes:forward": null, "turn:lanes:forward": null, "forward": null, "sidewalk": null, "int_ref": null }, "geometry": { "type": "LineString", "coordinates": [ [ 36.6811946, 56.2962058 ], [ 36.6812785, 56.2967271 ] ] } },
{ "type": "Feature", "properties": { "osm_id": 532959704, "bridge": "yes", "layer": "1", "ref": "А-108", "highway": "trunk", "surface": "asphalt", "oneway": null, "name": null, "maxspeed": "RU:rural", "lanes": "2", "lit": null, "lanes:backward": null, "lanes:forward": null, "turn:lanes:forward": null, "forward": null, "sidewalk": null, "int_ref": null }, "geometry": { "type": "LineString", "coordinates": [ [ 36.6817713, 56.2988104 ], [ 36.6820703, 56.2997576 ] ] } },
{ "type": "Feature", "properties": { "osm_id": 78315090, "bridge": "yes", "layer": "1", "ref": "А-108", "highway": "trunk", "surface": "asphalt", "oneway": "yes", "name": "Литейная улица", "maxspeed": null, "lanes": "2", "lit": null, "lanes:backward": null, "lanes:forward": null, "turn:lanes:forward": null, "forward": null, "sidewalk": null, "int_ref": null }, "geometry": { "type": "LineString", "coordinates": [ [ 36.710415, 56.3285961 ], [ 36.7116718, 56.328833 ], [ 36.7121077, 56.328921 ], [ 36.7133857, 56.3291706 ], [ 36.7148868, 56.329485 ] ] } },
{ "type": "Feature", "properties": { "osm_id": 78315091, "bridge": "yes", "layer": "1", "ref": "А-108", "highway": "trunk", "surface": "asphalt", "oneway": "yes", "name": "Литейная улица", "maxspeed": null, "lanes": "2", "lit": null, "lanes:backward": null, "lanes:forward": null, "turn:lanes:forward": null, "forward": null, "sidewalk": null, "int_ref": null }, "geometry": { "type": "LineString", "coordinates": [ [ 36.7147796, 56.3296096 ], [ 36.7132676, 56.3293042 ], [ 36.7120454, 56.3290703 ], [ 36.7116255, 56.3289878 ], [ 36.7103625, 56.3287465 ] ] } },
{ "type": "Feature", "properties": { "osm_id": 108904974, "bridge": "yes", "layer": "1", "ref": "А-108", "highway": "trunk", "surface": "asphalt", "oneway": null, "name": null, "maxspeed": null, "lanes": "2", "lit": null, "lanes:backward": null, "lanes:forward": null, "turn:lanes:forward": null, "forward": null, "sidewalk": "both", "int_ref": null }, "geometry": { "type": "LineString", "coordinates": [ [ 36.7432808, 56.3406698 ], [ 36.7425596, 56.3402231 ] ] } },
{ "type": "Feature", "properties": { "osm_id": 130792404, "bridge": "yes", "layer": "1", "ref": "А-108", "highway": "trunk", "surface": "asphalt", "oneway": null, "name": null, "maxspeed": null, "lanes": "2", "lit": null, "lanes:backward": null, "lanes:forward": null, "turn:lanes:forward": null, "forward": null, "sidewalk": null, "int_ref": null }, "geometry": { "type": "LineString", "coordinates": [ [ 36.8705486, 56.4044851 ], [ 36.8699732, 56.4045303 ] ] } },
{ "type": "Feature", "properties": { "osm_id": 692914238, "bridge": "yes", "layer": null, "ref": "А-108", "highway": "trunk", "surface": "asphalt", "oneway": null, "name": null, "maxspeed": null, "lanes": "2", "lit": null, "lanes:backward": null, "lanes:forward": null, "turn:lanes:forward": null, "forward": null, "sidewalk": null, "int_ref": null }, "geometry": { "type": "LineString", "coordinates": [ [ 37.2441434, 56.4049708 ], [ 37.2437643, 56.4051318 ] ] } },
{ "type": "Feature", "properties": { "osm_id": 561084892, "bridge": "yes", "layer": "1", "ref": "А-108", "highway": "trunk", "surface": "asphalt", "oneway": null, "name": null, "maxspeed": null, "lanes": "2", "lit": null, "lanes:backward": null, "lanes:forward": null, "turn:lanes:forward": null, "forward": null, "sidewalk": null, "int_ref": null }, "geometry": { "type": "LineString", "coordinates": [ [ 37.1806318, 56.433683 ], [ 37.180625, 56.433992 ] ] } },
{ "type": "Feature", "properties": { "osm_id": 693676817, "bridge": "yes", "layer": "1", "ref": "А-108", "highway": "trunk", "surface": "asphalt", "oneway": null, "name": null, "maxspeed": null, "lanes": "2", "lit": null, "lanes:backward": null, "lanes:forward": null, "turn:lanes:forward": null, "forward": null, "sidewalk": null, "int_ref": null }, "geometry": { "type": "LineString", "coordinates": [ [ 37.3109707, 56.390312 ], [ 37.3105438, 56.3904055 ] ] } },
{ "type": "Feature", "properties": { "osm_id": 561087300, "bridge": "yes", "layer": null, "ref": "А-108", "highway": "trunk", "surface": "asphalt", "oneway": null, "name": null, "maxspeed": null, "lanes": "2", "lit": null, "lanes:backward": null, "lanes:forward": null, "turn:lanes:forward": null, "forward": null, "sidewalk": null, "int_ref": null }, "geometry": { "type": "LineString", "coordinates": [ [ 37.3647059, 56.3719599 ], [ 37.3643536, 56.3720167 ] ] } },
{ "type": "Feature", "properties": { "osm_id": 189217474, "bridge": "yes", "layer": "1", "ref": "А-104", "highway": "trunk", "surface": "asphalt", "oneway": "yes", "name": null, "maxspeed": "90", "lanes": "2", "lit": "yes", "lanes:backward": null, "lanes:forward": null, "turn:lanes:forward": null, "forward": null, "sidewalk": null, "int_ref": null }, "geometry": { "type": "LineString", "coordinates": [ [ 37.4738372, 56.3651294 ], [ 37.4749845, 56.3649375 ] ] } },
{ "type": "Feature", "properties": { "osm_id": 28065071, "bridge": "yes", "layer": "1", "ref": "А-104", "highway": "trunk", "surface": "asphalt", "oneway": "yes", "name": null, "maxspeed": "90", "lanes": "2", "lit": "no", "lanes:backward": null, "lanes:forward": null, "turn:lanes:forward": null, "forward": null, "sidewalk": null, "int_ref": null }, "geometry": { "type": "LineString", "coordinates": [ [ 37.4782772, 56.379657 ], [ 37.4781263, 56.379141 ] ] } },
{ "type": "Feature", "properties": { "osm_id": 28065067, "bridge": "yes", "layer": "1", "ref": "А-104", "highway": "trunk", "surface": "asphalt", "oneway": "yes", "name": null, "maxspeed": "90", "lanes": "2", "lit": "no", "lanes:backward": null, "lanes:forward": null, "turn:lanes:forward": null, "forward": null, "sidewalk": null, "int_ref": null }, "geometry": { "type": "LineString", "coordinates": [ [ 37.4783035, 56.3790296 ], [ 37.4784517, 56.3795393 ] ] } },
{ "type": "Feature", "properties": { "osm_id": 28064693, "bridge": "yes", "layer": "1", "ref": "А-104", "highway": "trunk", "surface": "asphalt", "oneway": "yes", "name": "Дмитровское шоссе", "maxspeed": "90", "lanes": "2", "lit": "yes", "lanes:backward": null, "lanes:forward": null, "turn:lanes:forward": null, "forward": null, "sidewalk": null, "int_ref": null }, "geometry": { "type": "LineString", "coordinates": [ [ 37.4854659, 56.4043311 ], [ 37.4890608, 56.4063063 ] ] } },
{ "type": "Feature", "properties": { "osm_id": 28065072, "bridge": "yes", "layer": "1", "ref": "А-104", "highway": "trunk", "surface": "asphalt", "oneway": "yes", "name": "Дмитровское шоссе", "maxspeed": "90", "lanes": "2", "lit": "yes", "lanes:backward": null, "lanes:forward": null, "turn:lanes:forward": null, "forward": null, "sidewalk": null, "int_ref": null }, "geometry": { "type": "LineString", "coordinates": [ [ 37.4889646, 56.4063927 ], [ 37.4853734, 56.4044198 ] ] } },
{ "type": "Feature", "properties": { "osm_id": 168150762, "bridge": "yes", "layer": "1", "ref": "А-108", "highway": "trunk", "surface": "asphalt", "oneway": null, "name": null, "maxspeed": null, "lanes": "2", "lit": "yes", "lanes:backward": null, "lanes:forward": null, "turn:lanes:forward": null, "forward": null, "sidewalk": null, "int_ref": null }, "geometry": { "type": "LineString", "coordinates": [ [ 37.4963188, 56.4085669 ], [ 37.495365, 56.4088623 ] ] } },
{ "type": "Feature", "properties": { "osm_id": 168150761, "bridge": "yes", "layer": "1", "ref": null, "highway": "trunk", "surface": "asphalt", "oneway": null, "name": "А-108", "maxspeed": null, "lanes": "2", "lit": "yes", "lanes:backward": null, "lanes:forward": null, "turn:lanes:forward": null, "forward": null, "sidewalk": null, "int_ref": null }, "geometry": { "type": "LineString", "coordinates": [ [ 37.4927512, 56.4098881 ], [ 37.491806, 56.4103098 ] ] } },
{ "type": "Feature", "properties": { "osm_id": 250568849, "bridge": "yes", "layer": "1", "ref": "А-108", "highway": "trunk", "surface": "asphalt", "oneway": null, "name": null, "maxspeed": null, "lanes": "2", "lit": null, "lanes:backward": null, "lanes:forward": null, "turn:lanes:forward": null, "forward": null, "sidewalk": null, "int_ref": null }, "geometry": { "type": "LineString", "coordinates": [ [ 37.8449636, 56.4317067 ], [ 37.845851, 56.4318134 ] ] } },
{ "type": "Feature", "properties": { "osm_id": 274178163, "bridge": "yes", "layer": "1", "ref": "А-108", "highway": "trunk", "surface": "asphalt", "oneway": null, "name": null, "maxspeed": null, "lanes": "2", "lit": null, "lanes:backward": null, "lanes:forward": null, "turn:lanes:forward": null, "forward": null, "sidewalk": null, "int_ref": null }, "geometry": { "type": "LineString", "coordinates": [ [ 38.2997443, 56.3187865 ], [ 38.2998432, 56.318733 ] ] } },
{ "type": "Feature", "properties": { "osm_id": 725274557, "bridge": "yes", "layer": "1", "ref": "А-108", "highway": "trunk", "surface": "asphalt", "oneway": null, "name": null, "maxspeed": null, "lanes": "2", "lit": null, "lanes:backward": null, "lanes:forward": null, "turn:lanes:forward": null, "forward": null, "sidewalk": null, "int_ref": null }, "geometry": { "type": "LineString", "coordinates": [ [ 38.2115914, 56.3575069 ], [ 38.2189816, 56.3549247 ] ] } },
{ "type": "Feature", "properties": { "osm_id": 59214690, "bridge": "yes", "layer": "1", "ref": "А-108", "highway": "trunk", "surface": "asphalt", "oneway": null, "name": null, "maxspeed": null, "lanes": "2", "lit": null, "lanes:backward": null, "lanes:forward": null, "turn:lanes:forward": null, "forward": null, "sidewalk": null, "int_ref": null }, "geometry": { "type": "LineString", "coordinates": [ [ 38.3976736, 56.2828313 ], [ 38.3982568, 56.2824937 ] ] } }
]
}
